NORAD_CAT_ID,OBJECT_NAME,OBJECT_TYPE,EPOCH,MEAN_MOTION,ECCENTRICITY,INCLINATION,RA_OF_ASC_NODE,ARG_OF_PERICENTER,MEAN_ANOMALY,BSTAR,MEAN_MOTION_DOT,MEAN_MOTION_DDOT,TLE_LINE0,TLE_LINE1,TLE_LINE2,SEMIMAJOR_AXIS,PERIOD,APOGEE,PERIGEE,DECAYED
53787.0,STARLINK-4743,PAYLOAD,2023-02-21 18:03:13,15.08853131,0.0001112,53.2163,225.6372,84.3416,275.7703,0.00024453,3.607e-05,0.0,0 STARLINK-4743,1 53787U 22111Q   23052.75224038  .00003607  00000-0  24453-3 0  9997,2 53787  53.2163 225.6372 0001112  84.3416 275.7703 15.08853131 25834,6917.84,95.437,540.475,538.936,0.0
53787.0,STARLINK-4743,PAYLOAD,2023-02-22 11:32:28,15.08841235,0.0001193,53.2162,222.3654,95.3675,264.7454,8.1604e-05,1.011e-05,0.0,0 STARLINK-4743,1 53787U 22111Q   23053.48088117  .00001011  00000-0  81604-4 0  9993,2 53787  53.2162 222.3654 0001193  95.3675 264.7454 15.08841235 25134,6917.877,95.437,540.567,538.916,0.0
53787.0,STARLINK-4743,PAYLOAD,2023-02-22 13:07:51,15.08840645,0.0001157,53.2164,222.068,95.4946,264.6178,8.6047e-05,1.082e-05,0.0,0 STARLINK-4743,1 53787U 22111Q   23053.54712137  .00001082  00000-0  86047-4 0  9990,2 53787  53.2164 222.0680 0001157  95.4946 264.6178 15.08840645 25950,6917.878,95.438,540.544,538.943,0.0
53787.0,STARLINK-4743,PAYLOAD,2023-02-22 21:04:46,15.08844488,0.0001077,53.217,220.5817,91.1203,268.9912,0.00034698,5.239e-05,0.0,0 STARLINK-4743,1 53787U 22111Q   23053.87832154  .00005239  00000-0  34698-3 0  9990,2 53787  53.2170 220.5817 0001077  91.1203 268.9912 15.08844488 26001,6917.867,95.437,540.477,538.987,0.0
53787.0,STARLINK-4743,PAYLOAD,2023-02-23 11:23:15,15.08843015,0.0001187,53.2171,217.9057,96.0267,264.0861,0.0002551,3.775e-05,0.0,0 STARLINK-4743,1 53787U 22111Q   23054.47448283  .00003775  00000-0  25510-3 0  9999,2 53787  53.2171 217.9057 0001187  96.0267 264.0861 15.08843015 26098,6917.871,95.437,540.557,538.915,0.0
53787.0,STARLINK-4743,PAYLOAD,2023-02-23 17:44:47,15.08849229,0.0001173,53.2173,216.7167,94.8451,265.2675,0.00030843,4.625e-05,0.0,0 STARLINK-4743,1 53787U 22111Q   23054.73944030  .00004625  00000-0  30843-3 0  9999,2 53787  53.2173 216.7167 0001173  94.8451 265.2675 15.08849229 26139,6917.852,95.437,540.529,538.906,0.0
53787.0,STARLINK-4743,PAYLOAD,2023-02-23 22:30:56,15.08854884,0.0001212,53.2172,215.8243,94.9145,265.1986,0.00044315,6.775e-05,0.0,0 STARLINK-4743,1 53787U 22111Q   23054.93815835  .00006775  00000-0  44315-3 0  9998,2 53787  53.2172 215.8243 0001212  94.9145 265.1986 15.08854884 25358,6917.835,95.437,540.538,538.861,0.0
53787.0,STARLINK-4743,PAYLOAD,2023-02-24 03:17:06,15.08830426,0.0001212,53.2176,214.9311,92.2453,267.8678,-8.7157e-05,-1.674e-05,0.0,0 STARLINK-4743,1 53787U 22111Q   23055.13688506 -.00001674  00000-0 -87157-4 0  9991,2 53787  53.2176 214.9311 0001212  92.2453 267.8678 15.08830426 25387,6917.91,95.438,540.613,538.936,0.0
53787.0,STARLINK-4743,PAYLOAD,2023-02-24 11:14:02,15.08833139,8.65e-05,53.2172,213.4454,100.5061,259.6028,-8.3831e-05,-1.621e-05,0.0,0 STARLINK-4743,1 53787U 22111Q   23055.46808464 -.00001621  00000-0 -83831-4 0  9991,2 53787  53.2172 213.4454 0000865 100.5061 259.6028 15.08833139 26244,6917.901,95.438,540.365,539.168,0.0
53787.0,STARLINK-4743,PAYLOAD,2023-02-24 14:24:48,15.08836151,0.0001025,53.2172,212.8508,99.7942,260.3166,2.5736e-05,1.22e-06,0.0,0 STARLINK-4743,1 53787U 22111Q   23055.60056476  .00000122  00000-0  25736-4 0  9998,2 53787  53.2172 212.8508 0001025  99.7942 260.3166 15.08836151 26264,6917.892,95.438,540.466,539.048,0.0
53787.0,STARLINK-4743,PAYLOAD,2023-02-25 03:07:53,15.08841822,9.95e-05,53.2175,210.472,98.3292,261.7813,0.00026446,3.924e-05,0.0,0 STARLINK-4743,1 53787U 22111Q   23056.13048476  .00003924  00000-0  26446-3 0  9999,2 53787  53.2175 210.4720 0000995  98.3292 261.7813 15.08841822 25539,6917.875,95.437,540.428,539.051,0.0
53787.0,STARLINK-4743,PAYLOAD,2023-02-25 09:29:26,15.08846095,9.67e-05,53.217,209.2824,98.5048,261.6054,0.00042756,6.524e-05,0.0,0 STARLINK-4743,1 53787U 22111Q   23056.39544446  .00006524  00000-0  42756-3 0  9996,2 53787  53.2170 209.2824 0000967  98.5048 261.6054 15.08846095 26382,6917.862,95.437,540.396,539.058,0.0
53787.0,STARLINK-4743,PAYLOAD,2023-02-25 17:26:22,15.08835614,0.000112,53.2174,207.7959,97.0493,263.0626,0.0002326,3.415e-05,0.0,0 STARLINK-4743,1 53787U 22111Q   23056.72665019  .00003415  00000-0  23260-3 0  9998,2 53787  53.2174 207.7959 0001120  97.0493 263.0626 15.08835614 25620,6917.894,95.438,540.534,538.984,0.0
53787.0,STARLINK-4743,PAYLOAD,2023-02-26 02:58:39,15.08889134,8.12e-05,53.2171,206.0107,101.5892,258.5191,0.0013994,0.00022084,0.0,0 STARLINK-4743,1 53787U 22111Q   23057.12406908  .00022084  00000-0  13994-2 0  9998,2 53787  53.2171 206.0107 0000812 101.5892 258.5191 15.08889134 25683,6917.73,95.434,540.157,539.033,0.0
53787.0,STARLINK-4743,PAYLOAD,2023-02-26 09:20:12,15.08874815,0.0001313,53.217,204.8222,97.4015,262.7127,0.00071481,0.00011117,0.0,0 STARLINK-4743,1 53787U 22111Q   23057.38902848  .00011117  00000-0  71481-3 0  9991,2 53787  53.2170 204.8222 0001313  97.4015 262.7127 15.08874815 25724,6917.774,95.435,540.547,538.731,0.0
53787.0,STARLINK-4743,PAYLOAD,2023-02-26 18:52:30,15.0884898,5.52e-05,53.2176,203.0334,185.7543,174.3443,2.4767e-05,1.07e-06,0.0,0 STARLINK-4743,1 53787U 22111Q   23057.78646830  .00000107  00000-0  24767-4 0  9994,2 53787  53.2176 203.0334 0000552 185.7543 174.3443 15.08848980 25785,6917.853,95.437,540.1,539.336,0.0
53787.0,STARLINK-4743,PAYLOAD,2023-02-27 02:49:27,15.08830867,0.0001359,53.2169,201.5498,85.3716,274.7431,-0.00029572,-4.99e-05,0.0,0 STARLINK-4743,1 53787U 22111Q   23058.11768319 -.00004990  00000-0 -29572-3 0  9993,2 53787  53.2169 201.5498 0001359  85.3716 274.7431 15.08830867 25837,6917.908,95.438,540.713,538.833,0.0
53787.0,STARLINK-4743,PAYLOAD,2023-02-27 09:11:00,15.08835439,0.0001435,53.2169,200.3612,86.0779,274.0377,-0.00011401,-2.102e-05,0.0,0 STARLINK-4743,1 53787U 22111Q   23058.38264401 -.00002102  00000-0 -11401-3 0  9990,2 53787  53.2169 200.3612 0001435  86.0779 274.0377 15.08835439 26680,6917.894,95.438,540.752,538.767,0.0
53787.0,STARLINK-4743,PAYLOAD,2023-02-27 15:32:32,15.08854526,0.0001602,53.2164,199.1731,80.3436,279.7738,0.00035892,5.431e-05,0.0,0 STARLINK-4743,1 53787U 22111Q   23058.64759897  .00005431  00000-0  35892-3 0  9993,2 53787  53.2164 199.1731 0001602  80.3436 279.7738 15.08854526 26721,6917.836,95.437,540.809,538.593,0.0
53787.0,STARLINK-4743,PAYLOAD,2023-02-28 02:40:15,15.08846448,0.000178,53.2154,197.0928,63.0576,297.0598,0.00083521,0.00013032,0.0,0 STARLINK-4743,1 53787U 22111Q   23059.11128507  .00013032  00000-0  83521-3 0  9992,2 53787  53.2154 197.0928 0001780  63.0576 297.0598 15.08846448 25983,6917.861,95.437,540.957,538.494,0.0
53787.0,STARLINK-4743,PAYLOAD,2023-02-28 13:47:57,15.08837916,0.0001785,53.2156,195.0099,76.5295,283.5896,0.00026071,3.863e-05,0.0,0 STARLINK-4743,1 53787U 22111Q   23059.57496690  .00003863  00000-0  26071-3 0  9991,2 53787  53.2156 195.0099 0001785  76.5295 283.5896 15.08837916 26863,6917.887,95.438,540.987,538.517,0.0
53787.0,STARLINK-4743,PAYLOAD,2023-02-28 15:23:20,15.08838378,0.0001615,53.217,194.7117,82.6213,277.4963,0.00034165,5.153e-05,0.0,0 STARLINK-4743,1 53787U 22111Q   23059.64120625  .00005153  00000-0  34165-3 0  9998,2 53787  53.2170 194.7117 0001615  82.6213 277.4963 15.08838378 26068,6917.885,95.438,540.868,538.633,0.0
53787.0,STARLINK-4743,PAYLOAD,2023-02-28 20:09:29,15.08846658,0.0001658,53.2177,193.8204,79.9645,280.1535,0.00043628,6.663e-05,0.0,0 STARLINK-4743,1 53787U 22111Q   23059.83992328  .00006663  00000-0  43628-3 0  9997,2 53787  53.2177 193.8204 0001658  79.9645 280.1535 15.08846658 26906,6917.86,95.437,540.872,538.578,0.0
53787.0,STARLINK-4743,PAYLOAD,2023-03-01 02:31:02,15.08825457,0.000167,53.2167,192.6331,67.0115,293.1053,-0.00011156,-2.062e-05,0.0,0 STARLINK-4743,1 53787U 22111Q   23060.10489292 -.00002062  00000-0 -11156-3 0  9992,2 53787  53.2167 192.6331 0001670  67.0115 293.1053 15.08825457 26135,6917.925,95.438,540.945,538.635,0.0
53787.0,STARLINK-4743,PAYLOAD,2023-03-01 20:00:17,15.08833985,0.000167,53.2155,189.3594,76.7354,283.3824,0.00027243,4.05e-05,0.0,0 STARLINK-4743,1 53787U 22111Q   23060.83353541  .00004050  00000-0  27243-3 0  9990,2 53787  53.2155 189.3594 0001670  76.7354 283.3824 15.08833985 27052,6917.899,95.438,540.919,538.608,0.0
53787.0,STARLINK-4743,PAYLOAD,2023-03-02 18:15:41,15.08867211,0.0001301,53.2172,185.1976,78.0976,282.0162,0.0018972,0.00030058,0.0,0 STARLINK-4743,1 53787U 22111Q   23061.76089490  .00030058  00000-0  18972-2 0  9997,2 53787  53.2172 185.1976 0001301  78.0976 282.0162 15.08867211 27190,6917.797,95.436,540.562,538.762,0.0
53787.0,STARLINK-4743,PAYLOAD,2023-03-03 08:34:09,15.08861506,0.0001247,53.2167,182.5181,98.113,262.0003,0.001112,0.00017464,0.0,0 STARLINK-4743,1 53787U 22111Q   23062.35705186  .00017464  00000-0  11120-2 0  9994,2 53787  53.2167 182.5181 0001247  98.1130 262.0003 15.08861506 26470,6917.815,95.436,540.542,538.817,0.0
53787.0,STARLINK-4743,PAYLOAD,2023-03-03 19:41:50,15.08898882,0.00018,53.216,180.4358,110.3156,249.803,0.0023267,0.00036996,0.0,0 STARLINK-4743,1 53787U 22111Q   23062.82071847  .00036996  00000-0  23267-2 0  9992,2 53787  53.2160 180.4358 0001800 110.3156 249.8030 15.08898882 26544,6917.7,95.434,540.811,538.32,0.0
53787.0,STARLINK-4743,PAYLOAD,2023-03-04 00:27:59,15.08830259,0.0001614,53.2178,179.5479,140.1767,219.9344,-0.0027861,-0.00044344,0.0,0 STARLINK-4743,1 53787U 22111Q   23063.01943781 -.00044344  00000-0 -27861-2 0  9991,2 53787  53.2178 179.5479 0001614 140.1767 219.9344 15.08830259 26571,6917.91,95.438,540.892,538.659,0.0
53787.0,STARLINK-4743,PAYLOAD,2023-03-04 11:35:42,15.08837694,6.47e-05,53.2173,177.4658,126.7172,233.388,0.0026595,0.00042289,0.0,0 STARLINK-4743,1 53787U 22111Q   23063.48312751  .00042289  00000-0  26595-2 0  9996,2 53787  53.2173 177.4658 0000647 126.7172 233.3880 15.08837694 26640,6917.887,95.438,540.2,539.305,0.0
